start=new Date('2022-07-22T00:00:00.000Z').valueOf();
sats=[{"ARG_OF_PERICENTER":"53.7624","REV_AT_EPOCH":"8072","INCLINATION":"53.0550","RCS_SIZE":"LARGE","FILE":"3519094","TLE_LINE2":"2 47627  53.0550 175.4271 0001652  53.7624 306.3517 15.06390243 80729","RA_OF_ASC_NODE":"175.4271","REF_FRAME":"TEME","SEMIMAJOR_AXIS":"6925.378","MEAN_MOTION_DOT":"0.00000399","LAUNCH_DATE":"2021-02-16","MEAN_MOTION":"15.06390243","DECAY_DATE":null,"CENTER_NAME":"EARTH","MEAN_MOTION_DDOT":"0.0000000000000","OBJECT_NAME":"STARLINK-1972","OBJECT_TYPE":"PAYLOAD","TLE_LINE1":"1 47627U 21012H   22202.31435519  .00000399  00000-0  45677-4 0  9995","MEAN_ELEMENT_THEORY":"SGP4","NORAD_CAT_ID":"47627","ELEMENT_SET_NO":"999","ECCENTRICITY":"0.00016520","TIME_SYSTEM":"UTC","GP_ID":"208578727","CLASSIFICATION_TYPE":"U","OBJECT_ID":"2021-012H","COUNTRY_CODE":"US","EPHEMERIS_TYPE":"0","MEAN_ANOMALY":"306.3517","PERIAPSIS":"546.099","APOAPSIS":"548.388","PERIOD":"95.593","EPOCH":"2022-07-21T07:32:40.288416","BSTAR":"0.00004567700000","SITE":"AFETR"},{"GP_ID":"208603329","ELEMENT_SET_NO":"999","ECCENTRICITY":"0.00016300","NORAD_CAT_ID":"47628","TIME_SYSTEM":"UTC","TLE_LINE1":"1 47628U 21012J   22202.87046928 -.00001017  00000-0 -49417-4 0  9995","MEAN_ELEMENT_THEORY":"SGP4","APOAPSIS":"548.394","PERIOD":"95.593","MEAN_ANOMALY":"285.4934","PERIAPSIS":"546.136","SITE":"AFETR","EPOCH":"2022-07-21T20:53:28.545792","BSTAR":"-0.00004941700000","EPHEMERIS_TYPE":"0","CLASSIFICATION_TYPE":"U","OBJECT_ID":"2021-012J","COUNTRY_CODE":"US","RCS_SIZE":"LARGE","INCLINATION":"53.0549","TLE_LINE2":"2 47628  53.0549 267.9364 0001630  74.6235 285.4934 15.06383173 80009","FILE":"3519265","ARG_OF_PERICENTER":"74.6235","REV_AT_EPOCH":"8000","DECAY_DATE":null,"CENTER_NAME":"EARTH","MEAN_MOTION_DOT":"-0.00001017","MEAN_MOTION":"15.06383173","LAUNCH_DATE":"2021-02-16","OBJECT_TYPE":"PAYLOAD","MEAN_MOTION_DDOT":"0.0000000000000","OBJECT_NAME":"STARLINK-1973","RA_OF_ASC_NODE":"267.9364","REF_FRAME":"TEME","SEMIMAJOR_AXIS":"6925.400"},{"MEAN_ELEMENT_THEORY":"SGP4","TLE_LINE1":"1 47629U 21012K   22202.85295485 -.00000761  00000-0 -32182-4 0  9994","GP_ID":"208604074","ECCENTRICITY":"0.00015160","ELEMENT_SET_NO":"999","NORAD_CAT_ID":"47629","TIME_SYSTEM":"UTC","EPHEMERIS_TYPE":"0","COUNTRY_CODE":"US","OBJECT_ID":"2021-012K","CLASSIFICATION_TYPE":"U","SITE":"AFETR","BSTAR":"-0.00003218200000","EPOCH":"2022-07-21T20:28:15.299040","PERIOD":"95.592","APOAPSIS":"548.270","PERIAPSIS":"546.170","MEAN_ANOMALY":"291.6615","REV_AT_EPOCH":"8166","ARG_OF_PERICENTER":"68.4535","TLE_LINE2":"2 47629  53.0554 148.0287 0001516  68.4535 291.6615 15.06397914 81662","FILE":"3519265","RCS_SIZE":"LARGE","INCLINATION":"53.0554","SEMIMAJOR_AXIS":"6925.355","REF_FRAME":"TEME","RA_OF_ASC_NODE":"148.0287","OBJECT_TYPE":"PAYLOAD","OBJECT_NAME":"STARLINK-1974","MEAN_MOTION_DDOT":"0.0000000000000","CENTER_NAME":"EARTH","DECAY_DATE":null,"MEAN_MOTION":"15.06397914","LAUNCH_DATE":"2021-02-16","MEAN_MOTION_DOT":"-0.00000761"},{"APOAPSIS":"548.433","PERIOD":"95.593","MEAN_ANOMALY":"307.4590","PERIAPSIS":"546.063","SITE":"AFETR","BSTAR":"-0.00011426000000","EPOCH":"2022-07-21T13:05:05.449344","EPHEMERIS_TYPE":"0","OBJECT_ID":"2021-012L","CLASSIFICATION_TYPE":"U","COUNTRY_CODE":"US","GP_ID":"208578382","ELEMENT_SET_NO":"999","ECCENTRICITY":"0.00017110","NORAD_CAT_ID":"47630","TIME_SYSTEM":"UTC","TLE_LINE1":"1 47630U 21012L   22202.54520196 -.00001983  00000-0 -11426-3 0  9996","MEAN_ELEMENT_THEORY":"SGP4","DECAY_DATE":null,"CENTER_NAME":"EARTH","MEAN_MOTION_DOT":"-0.00001983","MEAN_MOTION":"15.06388846","LAUNCH_DATE":"2021-02-16","OBJECT_TYPE":"PAYLOAD","MEAN_MOTION_DDOT":"0.0000000000000","OBJECT_NAME":"STARLINK-1983","REF_FRAME":"TEME","RA_OF_ASC_NODE":"249.4949","SEMIMAJOR_AXIS":"6925.383","RCS_SIZE":"LARGE","INCLINATION":"53.0548","TLE_LINE2":"2 47630  53.0548 249.4949 0001711  52.6555 307.4590 15.06388846 79717","FILE":"3519094","ARG_OF_PERICENTER":"52.6555","REV_AT_EPOCH":"7971"},{"REV_AT_EPOCH":"8123","ARG_OF_PERICENTER":"64.9970","FILE":"3518988","TLE_LINE2":"2 47632  53.0534 175.3346 0001700  64.9970 295.1195 15.06400156 81230","INCLINATION":"53.0534","RCS_SIZE":"LARGE","REF_FRAME":"TEME","RA_OF_ASC_NODE":"175.3346","SEMIMAJOR_AXIS":"6925.348","MEAN_MOTION_DDOT":"0.0000000000000","OBJECT_NAME":"STARLINK-1992","OBJECT_TYPE":"PAYLOAD","MEAN_MOTION_DOT":"-0.00001102","LAUNCH_DATE":"2021-02-16","MEAN_MOTION":"15.06400156","DECAY_DATE":null,"CENTER_NAME":"EARTH","MEAN_ELEMENT_THEORY":"SGP4","TLE_LINE1":"1 47632U 21012N   22202.33920902 -.00001102  00000-0 -55108-4 0  9993","ECCENTRICITY":"0.00017000","ELEMENT_SET_NO":"999","NORAD_CAT_ID":"47632","TIME_SYSTEM":"UTC","GP_ID":"208574513","OBJECT_ID":"2021-012N","CLASSIFICATION_TYPE":"U","COUNTRY_CODE":"US","EPHEMERIS_TYPE":"0","EPOCH":"2022-07-21T08:08:27.659328","BSTAR":"-0.00005510800000","SITE":"AFETR","MEAN_ANOMALY":"295.1195","PERIAPSIS":"546.036","APOAPSIS":"548.390","PERIOD":"95.592"},{"PERIOD":"95.592","APOAPSIS":"548.188","PERIAPSIS":"546.266","MEAN_ANOMALY":"299.7682","SITE":"AFETR","BSTAR":"-0.00016021000000","EPOCH":"2022-07-21T13:22:17.124096","EPHEMERIS_TYPE":"0","COUNTRY_CODE":"US","CLASSIFICATION_TYPE":"U","OBJECT_ID":"2021-012P","GP_ID":"208603830","ELEMENT_SET_NO":"999","ECCENTRICITY":"0.00013880","NORAD_CAT_ID":"47633","TIME_SYSTEM":"UTC","TLE_LINE1":"1 47633U 21012P   22202.55714264 -.00002667  00000-0 -16021-3 0  9997","MEAN_ELEMENT_THEORY":"SGP4","CENTER_NAME":"EARTH","DECAY_DATE":null,"MEAN_MOTION":"15.06395601","LAUNCH_DATE":"2021-02-16","MEAN_MOTION_DOT":"-0.00002667","OBJECT_TYPE":"PAYLOAD","OBJECT_NAME":"STARLINK-2009","MEAN_MOTION_DDOT":"0.0000000000000","SEMIMAJOR_AXIS":"6925.362","RA_OF_ASC_NODE":"269.3757","REF_FRAME":"TEME","RCS_SIZE":"LARGE","INCLINATION":"53.0537","TLE_LINE2":"2 47633  53.0537 269.3757 0001388  60.3445 299.7682 15.06395601 79970","FILE":"3519265","ARG_OF_PERICENTER":"60.3445","REV_AT_EPOCH":"7997"},{"TLE_LINE1":"1 47634U 21012Q   22202.66498514 -.00006510  00000-0 -41874-3 0  9992","MEAN_ELEMENT_THEORY":"SGP4","NORAD_CAT_ID":"47634","ELEMENT_SET_NO":"999","ECCENTRICITY":"0.00013230","TIME_SYSTEM":"UTC","GP_ID":"208604575","CLASSIFICATION_TYPE":"U","OBJECT_ID":"2021-012Q","COUNTRY_CODE":"US","EPHEMERIS_TYPE":"0","MEAN_ANOMALY":"284.9518","PERIAPSIS":"546.358","APOAPSIS":"548.191","PERIOD":"95.593","BSTAR":"-0.00041874000000","EPOCH":"2022-07-21T15:57:34.716096","SITE":"AFETR","ARG_OF_PERICENTER":"75.1618","REV_AT_EPOCH":"7996","INCLINATION":"53.0536","RCS_SIZE":"LARGE","FILE":"3519265","TLE_LINE2":"2 47634  53.0536 268.8660 0001323  75.1618 284.9518 15.06380124 79969","RA_OF_ASC_NODE":"268.8660","REF_FRAME":"TEME","SEMIMAJOR_AXIS":"6925.409","MEAN_MOTION_DOT":"-0.00006510","MEAN_MOTION":"15.06380124","LAUNCH_DATE":"2021-02-16","DECAY_DATE":null,"CENTER_NAME":"EARTH","MEAN_MOTION_DDOT":"0.0000000000000","OBJECT_NAME":"STARLINK-2010","OBJECT_TYPE":"PAYLOAD"},{"GP_ID":"208604321","NORAD_CAT_ID":"47635","ELEMENT_SET_NO":"999","ECCENTRICITY":"0.00015570","TIME_SYSTEM":"UTC","MEAN_ELEMENT_THEORY":"SGP4","TLE_LINE1":"1 47635U 21012R   22202.88935433 -.00000951  00000-0 -44945-4 0  9999","SITE":"AFETR","BSTAR":"-0.00004494500000","EPOCH":"2022-07-21T21:20:40.214112","APOAPSIS":"548.298","PERIOD":"95.592","MEAN_ANOMALY":"294.0390","PERIAPSIS":"546.142","EPHEMERIS_TYPE":"0","OBJECT_ID":"2021-012R","CLASSIFICATION_TYPE":"U","COUNTRY_CODE":"US","TLE_LINE2":"2 47635  53.0581 172.8488 0001557  66.0762 294.0390 15.06397845 81332","FILE":"3519265","RCS_SIZE":"LARGE","INCLINATION":"53.0581","REV_AT_EPOCH":"8133","ARG_OF_PERICENTER":"66.0762","OBJECT_TYPE":"PAYLOAD","MEAN_MOTION_DDOT":"0.0000000000000","OBJECT_NAME":"STARLINK-2012","DECAY_DATE":null,"CENTER_NAME":"EARTH","MEAN_MOTION_DOT":"-0.00000951","LAUNCH_DATE":"2021-02-16","MEAN_MOTION":"15.06397845","RA_OF_ASC_NODE":"172.8488","REF_FRAME":"TEME","SEMIMAJOR_AXIS":"6925.355"},{"OBJECT_TYPE":"PAYLOAD","MEAN_MOTION_DDOT":"0.0000000000000","OBJECT_NAME":"STARLINK-2013","DECAY_DATE":null,"CENTER_NAME":"EARTH","MEAN_MOTION_DOT":"0.00000355","MEAN_MOTION":"15.06395595","LAUNCH_DATE":"2021-02-16","REF_FRAME":"TEME","RA_OF_ASC_NODE":"248.0366","SEMIMAJOR_AXIS":"6925.362","TLE_LINE2":"2 47636  53.0531 248.0366 0001427  85.6135 274.5017 15.06395595 80277","FILE":"3519265","RCS_SIZE":"LARGE","INCLINATION":"53.0531","REV_AT_EPOCH":"8027","ARG_OF_PERICENTER":"85.6135","SITE":"AFETR","EPOCH":"2022-07-21T20:25:36.521760","BSTAR":"0.00004270100000","APOAPSIS":"548.215","PERIOD":"95.592","MEAN_ANOMALY":"274.5017","PERIAPSIS":"546.239","EPHEMERIS_TYPE":"0","CLASSIFICATION_TYPE":"U","OBJECT_ID":"2021-012S","COUNTRY_CODE":"US","GP_ID":"208603080","ECCENTRICITY":"0.00014270","ELEMENT_SET_NO":"999","NORAD_CAT_ID":"47636","TIME_SYSTEM":"UTC","MEAN_ELEMENT_THEORY":"SGP4","TLE_LINE1":"1 47636U 21012S   22202.85111715  .00000355  00000-0  42701-4 0  9990"},{"ARG_OF_PERICENTER":"62.0221","REV_AT_EPOCH":"8028","RCS_SIZE":"LARGE","INCLINATION":"53.0525","TLE_LINE2":"2 47637  53.0525 248.1699 0001515  62.0221 298.0921 15.06401883 80288","FILE":"3519265","SEMIMAJOR_AXIS":"6925.343","RA_OF_ASC_NODE":"248.1699","REF_FRAME":"TEME","CENTER_NAME":"EARTH","DECAY_DATE":null,"MEAN_MOTION":"15.06401883","LAUNCH_DATE":"2021-02-16","MEAN_MOTION_DOT":"-0.00000020","OBJECT_TYPE":"PAYLOAD","OBJECT_NAME":"STARLINK-2014","MEAN_MOTION_DDOT":"0.0000000000000","TLE_LINE1":"1 47637U 21012T   22202.82162640 -.00000020  00000-0  17583-4 0  9991","MEAN_ELEMENT_THEORY":"SGP4","GP_ID":"208603330","NORAD_CAT_ID":"47637","ELEMENT_SET_NO":"999","TIME_SYSTEM":"UTC","ECCENTRICITY":"0.00015150","EPHEMERIS_TYPE":"0","COUNTRY_CODE":"US","CLASSIFICATION_TYPE":"U","OBJECT_ID":"2021-012T","PERIOD":"95.592","APOAPSIS":"548.257","PERIAPSIS":"546.159","MEAN_ANOMALY":"298.0921","SITE":"AFETR","EPOCH":"2022-07-21T19:43:08.520960","BSTAR":"0.00001758300000"}];
